{
  "type": "FeatureCollection",
  "features": [
    {
      "type": "Feature",
      "properties": {
        "norad_id": 41866,
        "name": "GOES 16",
        "group": "weather",
        "lat": -0.020223354857921743,
        "lon": -78.22628979866,
        "alt_km": 35772.345010572215,
        "timestamp": "2025-12-07T20:38:13.723253+00:00",
        "meta_object_name": "GOES 16",
        "meta_object_id": "2016-071A",
        "meta_epoch": "2025-12-07T06:17:19.680576",
        "meta_mean_motion": 1.00271454,
        "meta_eccentricity": 0.00035237,
        "meta_inclination": 0.0652,
        "meta_ra_of_asc_node": 105.9469,
        "meta_arg_of_pericenter": 153.7842,
        "meta_mean_anomaly": 166.2201,
        "meta_ephemeris_type": 0,
        "meta_classification_type": "U",
        "meta_norad_cat_id": 41866,
        "meta_element_set_no": 999,
        "meta_rev_at_epoch": 3317,
        "meta_bstar": 0,
        "meta_mean_motion_dot": -8.6e-07,
        "meta_mean_motion_ddot": 0,
        "tle_line1": "1 41866U 16071A   25341.26203334 -.00000086  00000+0  00000+0 0  9991",
        "tle_line2": "2 41866   0.0652 105.9469 0003523 153.7842 166.2201  1.00271454 33173"
      },
      "geometry": {
        "type": "Point",
        "coordinates": [
          -78.22628979866,
          -0.020223354857921743
        ]
      }
    },
    {
      "type": "Feature",
      "properties": {
        "norad_id": 41882,
        "name": "FENGYUN 4A",
        "group": "weather",
        "lat": 1.705081815956415,
        "lon": 150.1835150031886,
        "alt_km": 35779.36257695893,
        "timestamp": "2025-12-07T20:38:13.723265+00:00",
        "meta_object_name": "FENGYUN 4A",
        "meta_object_id": "2016-077A",
        "meta_epoch": "2025-12-07T00:41:38.834016",
        "meta_mean_motion": 1.0027613,
        "meta_eccentricity": 0.00050078,
        "meta_inclination": 1.8341,
        "meta_ra_of_asc_node": 82.4469,
        "meta_arg_of_pericenter": 142.6918,
        "meta_mean_anomaly": 345.1376,
        "meta_ephemeris_type": 0,
        "meta_classification_type": "U",
        "meta_norad_cat_id": 41882,
        "meta_element_set_no": 999,
        "meta_rev_at_epoch": 3300,
        "meta_bstar": 0,
        "meta_mean_motion_dot": -3.52e-06,
        "meta_mean_motion_ddot": 0,
        "tle_line1": "1 41882U 16077A   25341.02892169 -.00000352  00000+0  00000+0 0  9995",
        "tle_line2": "2 41882   1.8341  82.4469 0005007 142.6918 345.1376  1.00276130 33003"
      },
      "geometry": {
        "type": "Point",
        "coordinates": [
          150.1835150031886,
          1.705081815956415
        ]
      }
    },
    {
      "type": "Feature",
      "properties": {
        "norad_id": 41884,
        "name": "CYGFM05",
        "group": "weather",
        "lat": 25.679096267158492,
        "lon": -144.4863136081088,
        "alt_km": 413.0756276749062,
        "timestamp": "2025-12-07T20:38:13.723298+00:00",
        "meta_object_name": "CYGFM05",
        "meta_object_id": "2016-078A",
        "meta_epoch": "2025-12-06T23:56:44.248704",
        "meta_mean_motion": 15.47324397,
        "meta_eccentricity": 0.00094661,
        "meta_inclination": 34.96,
        "meta_ra_of_asc_node": 84.6299,
        "meta_arg_of_pericenter": 129.2466,
        "meta_mean_anomaly": 230.9097,
        "meta_ephemeris_type": 0,
        "meta_classification_type": "U",
        "meta_norad_cat_id": 41884,
        "meta_element_set_no": 999,
        "meta_rev_at_epoch": 49887,
        "meta_bstar": 0.00054005998,
        "meta_mean_motion_dot": 0.00028521,
        "meta_mean_motion_ddot": 0,
        "tle_line1": "1 41884U 16078A   25340.99773436  .00028521  00000+0  54006-3 0  9994",
        "tle_line2": "2 41884  34.9600  84.6299 0009466 129.2466 230.9097 15.47324397498873"
      },
      "geometry": {
        "type": "Point",
        "coordinates": [
          -144.4863136081088,
          25.679096267158492
        ]
      }
    },
    {
      "type": "Feature",
      "properties": {
        "norad_id": 41885,
        "name": "CYGFM04",
        "group": "weather",
        "lat": -20.43416704651444,
        "lon": 21.65813337426942,
        "alt_km": 423.07956660764467,
        "timestamp": "2025-12-07T20:38:13.723325+00:00",
        "meta_object_name": "CYGFM04",
        "meta_object_id": "2016-078B",
        "meta_epoch": "2025-12-07T06:53:14.362656",
        "meta_mean_motion": 15.50024545,
        "meta_eccentricity": 0.00087773,
        "meta_inclination": 34.9352,
        "meta_ra_of_asc_node": 57.6748,
        "meta_arg_of_pericenter": 161.318,
        "meta_mean_anomaly": 198.7865,
        "meta_ephemeris_type": 0,
        "meta_classification_type": "U",
        "meta_norad_cat_id": 41885,
        "meta_element_set_no": 999,
        "meta_rev_at_epoch": 49909,
        "meta_bstar": 0.00052828767,
        "meta_mean_motion_dot": 0.00030684,
        "meta_mean_motion_ddot": 0,
        "tle_line1": "1 41885U 16078B   25341.28697179  .00030684  00000+0  52829-3 0  9991",
        "tle_line2": "2 41885  34.9352  57.6748 0008777 161.3180 198.7865 15.50024545499096"
      },
      "geometry": {
        "type": "Point",
        "coordinates": [
          21.65813337426942,
          -20.43416704651444
        ]
      }
    },
    {
      "type": "Feature",
      "properties": {
        "norad_id": 41886,
        "name": "CYGFM02",
        "group": "weather",
        "lat": -25.44899127950073,
        "lon": 9.342454830853397,
        "alt_km": 419.9533475628832,
        "timestamp": "2025-12-07T20:38:13.723338+00:00",
        "meta_object_name": "CYGFM02",
        "meta_object_id": "2016-078C",
        "meta_epoch": "2025-12-07T06:56:49.173792",
        "meta_mean_motion": 15.51382069,
        "meta_eccentricity": 0.00105145,
        "meta_inclination": 34.944,
        "meta_ra_of_asc_node": 56.0541,
        "meta_arg_of_pericenter": 160.5047,
        "meta_mean_anomaly": 199.6079,
        "meta_ephemeris_type": 0,
        "meta_classification_type": "U",
        "meta_norad_cat_id": 41886,
        "meta_element_set_no": 999,
        "meta_rev_at_epoch": 49922,
        "meta_bstar": 0.00053597572,
        "meta_mean_motion_dot": 0.0003271,
        "meta_mean_motion_ddot": 0,
        "tle_line1": "1 41886U 16078C   25341.28945803  .00032710  00000+0  53598-3 0  9998",
        "tle_line2": "2 41886  34.9440  56.0541 0010514 160.5047 199.6079 15.51382069499225"
      },
      "geometry": {
        "type": "Point",
        "coordinates": [
          9.342454830853397,
          -25.44899127950073
        ]
      }
    },
    {
      "type": "Feature",
      "properties": {
        "norad_id": 41887,
        "name": "CYGFM01",
        "group": "weather",
        "lat": 8.5327353328413,
        "lon": -111.02397720245243,
        "alt_km": 415.49088998599564,
        "timestamp": "2025-12-07T20:38:13.723349+00:00",
        "meta_object_name": "CYGFM01",
        "meta_object_id": "2016-078D",
        "meta_epoch": "2025-12-06T23:48:24.880032",
        "meta_mean_motion": 15.47893664,
        "meta_eccentricity": 0.00090839,
        "meta_inclination": 34.9428,
        "meta_ra_of_asc_node": 87.0575,
        "meta_arg_of_pericenter": 120.3222,
        "meta_mean_anomaly": 239.8399,
        "meta_ephemeris_type": 0,
        "meta_classification_type": "U",
        "meta_norad_cat_id": 41887,
        "meta_element_set_no": 999,
        "meta_rev_at_epoch": 49881,
        "meta_bstar": 0.00053007626,
        "meta_mean_motion_dot": 0.00028553,
        "meta_mean_motion_ddot": 0,
        "tle_line1": "1 41887U 16078D   25340.99195463  .00028553  00000+0  53008-3 0  9991",
        "tle_line2": "2 41887  34.9428  87.0575 0009083 120.3222 239.8399 15.47893664498810"
      },
      "geometry": {
        "type": "Point",
        "coordinates": [
          -111.02397720245243,
          8.5327353328413
        ]
      }
    },
    {
      "type": "Feature",
      "properties": {
        "norad_id": 41888,
        "name": "CYGFM08",
        "group": "weather",
        "lat": -6.990542301763907,
        "lon": -105.4535830942664,
        "alt_km": 413.1725788853819,
        "timestamp": "2025-12-07T20:38:13.723360+00:00",
        "meta_object_name": "CYGFM08",
        "meta_object_id": "2016-078E",
        "meta_epoch": "2025-12-07T07:26:20.570784",
        "meta_mean_motion": 15.49099947,
        "meta_eccentricity": 0.00109343,
        "meta_inclination": 34.946,
        "meta_ra_of_asc_node": 68.034,
        "meta_arg_of_pericenter": 148.8812,
        "meta_mean_anomaly": 211.2559,
        "meta_ephemeris_type": 0,
        "meta_classification_type": "U",
        "meta_norad_cat_id": 41888,
        "meta_element_set_no": 999,
        "meta_rev_at_epoch": 49909,
        "meta_bstar": 0.0005229452,
        "meta_mean_motion_dot": 0.00029414,
        "meta_mean_motion_ddot": 0,
        "tle_line1": "1 41888U 16078E   25341.30996031  .00029414  00000+0  52295-3 0  9992",
        "tle_line2": "2 41888  34.9460  68.0340 0010934 148.8812 211.2559 15.49099947499090"
      },
      "geometry": {
        "type": "Point",
        "coordinates": [
          -105.4535830942664,
          -6.990542301763907
        ]
      }
    }
  ]
}